KUIPER-00089            
1 64834U 25151U   25351.22101070  .00013139  00000+0  17489-2 0  9995
2 64834  51.9002 290.2626 0002257  60.0678 300.0509 14.79938546 23305
KUIPER-00090            
1 64835U 25151V   25351.49724495  .00002274  00000+0  35175-3 0  9998
2 64835  51.8985 280.8730 0004268  80.0395 280.1047 14.76776311 23456
KUIPER-00091            
1 64836U 25151W   25351.22369788  .00011826  00000+0  15764-2 0  9994
2 64836  51.9010 287.7573 0008602  24.8452 335.2923 14.79942839 23339
KUIPER-00092            
1 64837U 25151X   25351.55126203 -.00224792  00000+0 -30940-1 0  9996
2 64837  51.9022 293.7859 0006769 338.1765  21.8908 14.79242351 24498
KUIPER-00093            
1 64838U 25151Y   25351.55047664 -.00007011  00000+0 -89024-3 0  9992
2 64838  51.9010 296.2959 0014562 339.8051  20.2334 14.79896197 23242
KUIPER-00094            
1 64839U 25151Z   25351.50524834  .00007661  00000+0  55517-3 0  9996
2 64839  51.8899 280.4061 0004389  13.0404 347.0681 15.04819372 23463
KUIPER-00081            
1 65132U 25171A   25351.58336806 -.00045046  00000+0 -41386-2 0  9992
2 65132  51.8925 152.1651 0002012 196.0176 215.1410 14.94440964  4851
KUIPER-00088            
1 65133U 25171B   25351.54305994  .00001813  00000+0  28697-3 0  9996
2 65133  51.8983 169.0788 0007909 203.6466 156.4133 14.76731609 20622
