<?xml version="1.0" encoding="UTF-8"?>
<ndm xmlns:xsi="http://www.w3.org/2001/XMLSchema-instance" xsi:noNamespaceSchemaLocation="https://sanaregistry.org/r/ndmxml_unqualified/ndmxml-2.0.0-master-2.0.xsd">
<omm id="CCSDS_OMM_VERS" version="2.0">
<header><CREATION_DATE/><ORIGINATOR/></header><body><segment><metadata><OBJECT_NAME>KUIPER-00089</OBJECT_NAME><OBJECT_ID>2025-151U</OBJECT_ID><CENTER_NAME>EARTH</CENTER_NAME><REF_FRAME>TEME</REF_FRAME><TIME_SYSTEM>UTC</TIME_SYSTEM><MEAN_ELEMENT_THEORY>SGP4</MEAN_ELEMENT_THEORY></metadata><data><meanElements><EPOCH>2025-12-17T05:18:15.324480</EPOCH><MEAN_MOTION>14.79938546</MEAN_MOTION><ECCENTRICITY>.00022577</ECCENTRICITY><INCLINATION>51.9002</INCLINATION><RA_OF_ASC_NODE>290.2626</RA_OF_ASC_NODE><ARG_OF_PERICENTER>60.0678</ARG_OF_PERICENTER><MEAN_ANOMALY>300.0509</MEAN_ANOMALY></meanElements><tleParameters><EPHEMERIS_TYPE>0</EPHEMERIS_TYPE><CLASSIFICATION_TYPE>U</CLASSIFICATION_TYPE><NORAD_CAT_ID>64834</NORAD_CAT_ID><ELEMENT_SET_NO>999</ELEMENT_SET_NO><REV_AT_EPOCH>2330</REV_AT_EPOCH><BSTAR>.17489245E-2</BSTAR><MEAN_MOTION_DOT>.13139E-3</MEAN_MOTION_DOT><MEAN_MOTION_DDOT>0</MEAN_MOTION_DDOT></tleParameters></data></segment></body></omm>
<omm id="CCSDS_OMM_VERS" version="2.0">
<header><CREATION_DATE/><ORIGINATOR/></header><body><segment><metadata><OBJECT_NAME>KUIPER-00090</OBJECT_NAME><OBJECT_ID>2025-151V</OBJECT_ID><CENTER_NAME>EARTH</CENTER_NAME><REF_FRAME>TEME</REF_FRAME><TIME_SYSTEM>UTC</TIME_SYSTEM><MEAN_ELEMENT_THEORY>SGP4</MEAN_ELEMENT_THEORY></metadata><data><meanElements><EPOCH>2025-12-17T11:56:01.963680</EPOCH><MEAN_MOTION>14.76776311</MEAN_MOTION><ECCENTRICITY>.00042685</ECCENTRICITY><INCLINATION>51.8985</INCLINATION><RA_OF_ASC_NODE>280.8730</RA_OF_ASC_NODE><ARG_OF_PERICENTER>80.0395</ARG_OF_PERICENTER><MEAN_ANOMALY>280.1047</MEAN_ANOMALY></meanElements><tleParameters><EPHEMERIS_TYPE>0</EPHEMERIS_TYPE><CLASSIFICATION_TYPE>U</CLASSIFICATION_TYPE><NORAD_CAT_ID>64835</NORAD_CAT_ID><ELEMENT_SET_NO>999</ELEMENT_SET_NO><REV_AT_EPOCH>2345</REV_AT_EPOCH><BSTAR>.35175232E-3</BSTAR><MEAN_MOTION_DOT>.2274E-4</MEAN_MOTION_DOT><MEAN_MOTION_DDOT>0</MEAN_MOTION_DDOT></tleParameters></data></segment></body></omm>
<omm id="CCSDS_OMM_VERS" version="2.0">
<header><CREATION_DATE/><ORIGINATOR/></header><body><segment><metadata><OBJECT_NAME>KUIPER-00091</OBJECT_NAME><OBJECT_ID>2025-151W</OBJECT_ID><CENTER_NAME>EARTH</CENTER_NAME><REF_FRAME>TEME</REF_FRAME><TIME_SYSTEM>UTC</TIME_SYSTEM><MEAN_ELEMENT_THEORY>SGP4</MEAN_ELEMENT_THEORY></metadata><data><meanElements><EPOCH>2025-12-17T05:22:07.496832</EPOCH><MEAN_MOTION>14.79942839</MEAN_MOTION><ECCENTRICITY>.00086021</ECCENTRICITY><INCLINATION>51.9010</INCLINATION><RA_OF_ASC_NODE>287.7573</RA_OF_ASC_NODE><ARG_OF_PERICENTER>24.8452</ARG_OF_PERICENTER><MEAN_ANOMALY>335.2923</MEAN_ANOMALY></meanElements><tleParameters><EPHEMERIS_TYPE>0</EPHEMERIS_TYPE><CLASSIFICATION_TYPE>U</CLASSIFICATION_TYPE><NORAD_CAT_ID>64836</NORAD_CAT_ID><ELEMENT_SET_NO>999</ELEMENT_SET_NO><REV_AT_EPOCH>2333</REV_AT_EPOCH><BSTAR>.15764459E-2</BSTAR><MEAN_MOTION_DOT>.11826E-3</MEAN_MOTION_DOT><MEAN_MOTION_DDOT>0</MEAN_MOTION_DDOT></tleParameters></data></segment></body></omm>
<omm id="CCSDS_OMM_VERS" version="2.0">
<header><CREATION_DATE/><ORIGINATOR/></header><body><segment><metadata><OBJECT_NAME>KUIPER-00092</OBJECT_NAME><OBJECT_ID>2025-151X</OBJECT_ID><CENTER_NAME>EARTH</CENTER_NAME><REF_FRAME>TEME</REF_FRAME><TIME_SYSTEM>UTC</TIME_SYSTEM><MEAN_ELEMENT_THEORY>SGP4</MEAN_ELEMENT_THEORY></metadata><data><meanElements><EPOCH>2025-12-17T13:13:49.039392</EPOCH><MEAN_MOTION>14.79242351</MEAN_MOTION><ECCENTRICITY>.00067694</ECCENTRICITY><INCLINATION>51.9022</INCLINATION><RA_OF_ASC_NODE>293.7859</RA_OF_ASC_NODE><ARG_OF_PERICENTER>338.1765</ARG_OF_PERICENTER><MEAN_ANOMALY>21.8908</MEAN_ANOMALY></meanElements><tleParameters><EPHEMERIS_TYPE>0</EPHEMERIS_TYPE><CLASSIFICATION_TYPE>U</CLASSIFICATION_TYPE><NORAD_CAT_ID>64837</NORAD_CAT_ID><ELEMENT_SET_NO>999</ELEMENT_SET_NO><REV_AT_EPOCH>2449</REV_AT_EPOCH><BSTAR>-.309401E-1</BSTAR><MEAN_MOTION_DOT>-.224792E-2</MEAN_MOTION_DOT><MEAN_MOTION_DDOT>0</MEAN_MOTION_DDOT></tleParameters></data></segment></body></omm>
<omm id="CCSDS_OMM_VERS" version="2.0">
<header><CREATION_DATE/><ORIGINATOR/></header><body><segment><metadata><OBJECT_NAME>KUIPER-00093</OBJECT_NAME><OBJECT_ID>2025-151Y</OBJECT_ID><CENTER_NAME>EARTH</CENTER_NAME><REF_FRAME>TEME</REF_FRAME><TIME_SYSTEM>UTC</TIME_SYSTEM><MEAN_ELEMENT_THEORY>SGP4</MEAN_ELEMENT_THEORY></metadata><data><meanElements><EPOCH>2025-12-17T13:12:41.181696</EPOCH><MEAN_MOTION>14.79896197</MEAN_MOTION><ECCENTRICITY>.00145621</ECCENTRICITY><INCLINATION>51.9010</INCLINATION><RA_OF_ASC_NODE>296.2959</RA_OF_ASC_NODE><ARG_OF_PERICENTER>339.8051</ARG_OF_PERICENTER><MEAN_ANOMALY>20.2334</MEAN_ANOMALY></meanElements><tleParameters><EPHEMERIS_TYPE>0</EPHEMERIS_TYPE><CLASSIFICATION_TYPE>U</CLASSIFICATION_TYPE><NORAD_CAT_ID>64838</NORAD_CAT_ID><ELEMENT_SET_NO>999</ELEMENT_SET_NO><REV_AT_EPOCH>2324</REV_AT_EPOCH><BSTAR>-.89024471E-3</BSTAR><MEAN_MOTION_DOT>-.7011E-4</MEAN_MOTION_DOT><MEAN_MOTION_DDOT>0</MEAN_MOTION_DDOT></tleParameters></data></segment></body></omm>
<omm id="CCSDS_OMM_VERS" version="2.0">
<header><CREATION_DATE/><ORIGINATOR/></header><body><segment><metadata><OBJECT_NAME>KUIPER-00094</OBJECT_NAME><OBJECT_ID>2025-151Z</OBJECT_ID><CENTER_NAME>EARTH</CENTER_NAME><REF_FRAME>TEME</REF_FRAME><TIME_SYSTEM>UTC</TIME_SYSTEM><MEAN_ELEMENT_THEORY>SGP4</MEAN_ELEMENT_THEORY></metadata><data><meanElements><EPOCH>2025-12-17T12:07:33.456576</EPOCH><MEAN_MOTION>15.04819372</MEAN_MOTION><ECCENTRICITY>.00043891</ECCENTRICITY><INCLINATION>51.8899</INCLINATION><RA_OF_ASC_NODE>280.4061</RA_OF_ASC_NODE><ARG_OF_PERICENTER>13.0404</ARG_OF_PERICENTER><MEAN_ANOMALY>347.0681</MEAN_ANOMALY></meanElements><tleParameters><EPHEMERIS_TYPE>0</EPHEMERIS_TYPE><CLASSIFICATION_TYPE>U</CLASSIFICATION_TYPE><NORAD_CAT_ID>64839</NORAD_CAT_ID><ELEMENT_SET_NO>999</ELEMENT_SET_NO><REV_AT_EPOCH>2346</REV_AT_EPOCH><BSTAR>.55517022E-3</BSTAR><MEAN_MOTION_DOT>.7661E-4</MEAN_MOTION_DOT><MEAN_MOTION_DDOT>0</MEAN_MOTION_DDOT></tleParameters></data></segment></body></omm>
<omm id="CCSDS_OMM_VERS" version="2.0">
<header><CREATION_DATE/><ORIGINATOR/></header><body><segment><metadata><OBJECT_NAME>KUIPER-00081</OBJECT_NAME><OBJECT_ID>2025-171A</OBJECT_ID><CENTER_NAME>EARTH</CENTER_NAME><REF_FRAME>TEME</REF_FRAME><TIME_SYSTEM>UTC</TIME_SYSTEM><MEAN_ELEMENT_THEORY>SGP4</MEAN_ELEMENT_THEORY></metadata><data><meanElements><EPOCH>2025-12-17T14:00:03.000384</EPOCH><MEAN_MOTION>14.94440964</MEAN_MOTION><ECCENTRICITY>.00020122</ECCENTRICITY><INCLINATION>51.8925</INCLINATION><RA_OF_ASC_NODE>152.1651</RA_OF_ASC_NODE><ARG_OF_PERICENTER>196.0176</ARG_OF_PERICENTER><MEAN_ANOMALY>215.1410</MEAN_ANOMALY></meanElements><tleParameters><EPHEMERIS_TYPE>0</EPHEMERIS_TYPE><CLASSIFICATION_TYPE>U</CLASSIFICATION_TYPE><NORAD_CAT_ID>65132</NORAD_CAT_ID><ELEMENT_SET_NO>999</ELEMENT_SET_NO><REV_AT_EPOCH>485</REV_AT_EPOCH><BSTAR>-.41385782E-2</BSTAR><MEAN_MOTION_DOT>-.45046E-3</MEAN_MOTION_DOT><MEAN_MOTION_DDOT>0</MEAN_MOTION_DDOT></tleParameters></data></segment></body></omm>
<omm id="CCSDS_OMM_VERS" version="2.0">
<header><CREATION_DATE/><ORIGINATOR/></header><body><segment><metadata><OBJECT_NAME>KUIPER-00088</OBJECT_NAME><OBJECT_ID>2025-171B</OBJECT_ID><CENTER_NAME>EARTH</CENTER_NAME><REF_FRAME>TEME</REF_FRAME><TIME_SYSTEM>UTC</TIME_SYSTEM><MEAN_ELEMENT_THEORY>SGP4</MEAN_ELEMENT_THEORY></metadata><data><meanElements><EPOCH>2025-12-17T13:02:00.378816</EPOCH><MEAN_MOTION>14.76731609</MEAN_MOTION><ECCENTRICITY>.00079091</ECCENTRICITY><INCLINATION>51.8983</INCLINATION><RA_OF_ASC_NODE>169.0788</RA_OF_ASC_NODE><ARG_OF_PERICENTER>203.6466</ARG_OF_PERICENTER><MEAN_ANOMALY>156.4133</MEAN_ANOMALY></meanElements><tleParameters><EPHEMERIS_TYPE>0</EPHEMERIS_TYPE><CLASSIFICATION_TYPE>U</CLASSIFICATION_TYPE><NORAD_CAT_ID>65133</NORAD_CAT_ID><ELEMENT_SET_NO>999</ELEMENT_SET_NO><REV_AT_EPOCH>2062</REV_AT_EPOCH><BSTAR>.28696541E-3</BSTAR><MEAN_MOTION_DOT>.1813E-4</MEAN_MOTION_DOT><MEAN_MOTION_DDOT>0</MEAN_MOTION_DDOT></tleParameters></data></segment></body></omm>

</ndm>
